{"fetched_at":"2026-03-29T16:36:15Z","count":15609,"tles":[{"name":"STARLINK-2395","line1":"1 47814U 21018AD  26087.60037309  .00002220  00000+0  87060-4 0  9997","line2":"2 47814  53.1594 155.0120 0001196  77.5921 282.5214 15.30197913279680","category":"Starlink"}]}